{
  "type": "FeatureCollection",
  "features": [
    {
      "type": "Feature",
      "properties": {
        "norad_id": 66561,
        "name": "STARLINK-35305",
        "group": "last-30-days",
        "lat": -41.37632539860894,
        "lon": -11.84297135669341,
        "alt_km": 400.32113800509615,
        "timestamp": "2025-12-23T07:45:08.114059+00:00",
        "meta_object_name": "STARLINK-35305",
        "meta_object_id": "2025-268E",
        "meta_epoch": "2025-12-23T00:00:00.999648",
        "meta_mean_motion": 15.56443544,
        "meta_eccentricity": 0.00015672,
        "meta_inclination": 43.0007,
        "meta_ra_of_asc_node": 61.0231,
        "meta_arg_of_pericenter": 274.9345,
        "meta_mean_anomaly": 357.2734,
        "meta_ephemeris_type": 0,
        "meta_classification_type": "U",
        "meta_norad_cat_id": 66561,
        "meta_element_set_no": 999,
        "meta_rev_at_epoch": 605,
        "meta_bstar": -0.00089343691,
        "meta_mean_motion_dot": -0.00064735,
        "meta_mean_motion_ddot": 0,
        "tle_line1": "1 66561U 25268E   25357.00001157 -.00064735  00000+0 -89344-3 0  9990",
        "tle_line2": "2 66561  43.0007  61.0231 0001567 274.9345 357.2734 15.56443544  6059"
      },
      "geometry": {
        "type": "Point",
        "coordinates": [
          -11.84297135669341,
          -41.37632539860894
        ]
      }
    },
    {
      "type": "Feature",
      "properties": {
        "norad_id": 66562,
        "name": "STARLINK-35579",
        "group": "last-30-days",
        "lat": -41.79203912073798,
        "lon": -14.457453961173623,
        "alt_km": 401.290464284466,
        "timestamp": "2025-12-23T07:45:08.114071+00:00",
        "meta_object_name": "STARLINK-35579",
        "meta_object_id": "2025-268F",
        "meta_epoch": "2025-12-23T00:00:00.999648",
        "meta_mean_motion": 15.56762875,
        "meta_eccentricity": 0.00017107,
        "meta_inclination": 43.0006,
        "meta_ra_of_asc_node": 61.0276,
        "meta_arg_of_pericenter": 265.2579,
        "meta_mean_anomaly": 4.9789,
        "meta_ephemeris_type": 0,
        "meta_classification_type": "U",
        "meta_norad_cat_id": 66562,
        "meta_element_set_no": 999,
        "meta_rev_at_epoch": 610,
        "meta_bstar": -0.015853412,
        "meta_mean_motion_dot": -0.01059727,
        "meta_mean_motion_ddot": 0,
        "tle_line1": "1 66562U 25268F   25357.00001157 -.01059727  00000+0 -15853-1 0  9999",
        "tle_line2": "2 66562  43.0006  61.0276 0001710 265.2579   4.9789 15.56762875  6103"
      },
      "geometry": {
        "type": "Point",
        "coordinates": [
          -14.457453961173623,
          -41.79203912073798
        ]
      }
    },
    {
      "type": "Feature",
      "properties": {
        "norad_id": 66563,
        "name": "STARLINK-35437",
        "group": "last-30-days",
        "lat": -40.92390911044603,
        "lon": -9.376728824584745,
        "alt_km": 400.281239763508,
        "timestamp": "2025-12-23T07:45:08.114098+00:00",
        "meta_object_name": "STARLINK-35437",
        "meta_object_id": "2025-268G",
        "meta_epoch": "2025-12-23T00:00:00.999648",
        "meta_mean_motion": 15.56401159,
        "meta_eccentricity": 0.00015965,
        "meta_inclination": 43.0006,
        "meta_ra_of_asc_node": 61.0187,
        "meta_arg_of_pericenter": 265.4778,
        "meta_mean_anomaly": 8.6574,
        "meta_ephemeris_type": 0,
        "meta_classification_type": "U",
        "meta_norad_cat_id": 66563,
        "meta_element_set_no": 999,
        "meta_rev_at_epoch": 610,
        "meta_bstar": 0.00042454078,
        "meta_mean_motion_dot": 0.00030537,
        "meta_mean_motion_ddot": 0,
        "tle_line1": "1 66563U 25268G   25357.00001157  .00030537  00000+0  42454-3 0  9994",
        "tle_line2": "2 66563  43.0006  61.0187 0001596 265.4778   8.6574 15.56401159  6108"
      },
      "geometry": {
        "type": "Point",
        "coordinates": [
          -9.376728824584745,
          -40.92390911044603
        ]
      }
    },
    {
      "type": "Feature",
      "properties": {
        "norad_id": 66564,
        "name": "STARLINK-35358",
        "group": "last-30-days",
        "lat": -40.41886312308465,
        "lon": -6.942683178445078,
        "alt_km": 400.3574554273446,
        "timestamp": "2025-12-23T07:45:08.114112+00:00",
        "meta_object_name": "STARLINK-35358",
        "meta_object_id": "2025-268H",
        "meta_epoch": "2025-12-23T00:00:00.999648",
        "meta_mean_motion": 15.56442135,
        "meta_eccentricity": 0.00015197,
        "meta_inclination": 43.0007,
        "meta_ra_of_asc_node": 61.0138,
        "meta_arg_of_pericenter": 267.4379,
        "meta_mean_anomaly": 8.6053,
        "meta_ephemeris_type": 0,
        "meta_classification_type": "U",
        "meta_norad_cat_id": 66564,
        "meta_element_set_no": 999,
        "meta_rev_at_epoch": 605,
        "meta_bstar": -0.00085992151,
        "meta_mean_motion_dot": -0.00062335,
        "meta_mean_motion_ddot": 0,
        "tle_line1": "1 66564U 25268H   25357.00001157 -.00062335  00000+0 -85992-3 0  9992",
        "tle_line2": "2 66564  43.0007  61.0138 0001519 267.4379   8.6053 15.56442135  6055"
      },
      "geometry": {
        "type": "Point",
        "coordinates": [
          -6.942683178445078,
          -40.41886312308465
        ]
      }
    },
    {
      "type": "Feature",
      "properties": {
        "norad_id": 66565,
        "name": "STARLINK-35893",
        "group": "last-30-days",
        "lat": -39.86294476228321,
        "lon": -4.546079539973,
        "alt_km": 400.3192983370918,
        "timestamp": "2025-12-23T07:45:08.114123+00:00",
        "meta_object_name": "STARLINK-35893",
        "meta_object_id": "2025-268J",
        "meta_epoch": "2025-12-23T00:00:00.999648",
        "meta_mean_motion": 15.56458702,
        "meta_eccentricity": 0.00015877,
        "meta_inclination": 43.0006,
        "meta_ra_of_asc_node": 61.0087,
        "meta_arg_of_pericenter": 269.3237,
        "meta_mean_anomaly": 8.6374,
        "meta_ephemeris_type": 0,
        "meta_classification_type": "U",
        "meta_norad_cat_id": 66565,
        "meta_element_set_no": 999,
        "meta_rev_at_epoch": 610,
        "meta_bstar": -0.0014575573,
        "meta_mean_motion_dot": -0.00104909,
        "meta_mean_motion_ddot": 0,
        "tle_line1": "1 66565U 25268J   25357.00001157 -.00104909  00000+0 -14576-2 0  9996",
        "tle_line2": "2 66565  43.0006  61.0087 0001587 269.3237   8.6374 15.56458702  6106"
      },
      "geometry": {
        "type": "Point",
        "coordinates": [
          -4.546079539973,
          -39.86294476228321
        ]
      }
    },
    {
      "type": "Feature",
      "properties": {
        "norad_id": 66566,
        "name": "STARLINK-35871",
        "group": "last-30-days",
        "lat": -39.25895867388343,
        "lon": -2.1911852307681237,
        "alt_km": 400.4225020915692,
        "timestamp": "2025-12-23T07:45:08.114133+00:00",
        "meta_object_name": "STARLINK-35871",
        "meta_object_id": "2025-268K",
        "meta_epoch": "2025-12-23T00:00:00.999648",
        "meta_mean_motion": 15.56456271,
        "meta_eccentricity": 0.00014782,
        "meta_inclination": 43.0007,
        "meta_ra_of_asc_node": 61.0038,
        "meta_arg_of_pericenter": 261.9863,
        "meta_mean_anomaly": 17.8929,
        "meta_ephemeris_type": 0,
        "meta_classification_type": "U",
        "meta_norad_cat_id": 66566,
        "meta_element_set_no": 999,
        "meta_rev_at_epoch": 610,
        "meta_bstar": -0.0013737004,
        "meta_mean_motion_dot": -0.00098958,
        "meta_mean_motion_ddot": 0,
        "tle_line1": "1 66566U 25268K   25357.00001157 -.00098958  00000+0 -13737-2 0  9991",
        "tle_line2": "2 66566  43.0007  61.0038 0001478 261.9863  17.8929 15.56456271  6103"
      },
      "geometry": {
        "type": "Point",
        "coordinates": [
          -2.1911852307681237,
          -39.25895867388343
        ]
      }
    },
    {
      "type": "Feature",
      "properties": {
        "norad_id": 66567,
        "name": "STARLINK-35825",
        "group": "last-30-days",
        "lat": -38.61125899487995,
        "lon": 0.11173315212297862,
        "alt_km": 400.4052802383094,
        "timestamp": "2025-12-23T07:45:08.114146+00:00",
        "meta_object_name": "STARLINK-35825",
        "meta_object_id": "2025-268L",
        "meta_epoch": "2025-12-23T00:00:00.999648",
        "meta_mean_motion": 15.56454435,
        "meta_eccentricity": 0.00013735,
        "meta_inclination": 43.0007,
        "meta_ra_of_asc_node": 60.9996,
        "meta_arg_of_pericenter": 271.8844,
        "meta_mean_anomaly": 9.9096,
        "meta_ephemeris_type": 0,
        "meta_classification_type": "U",
        "meta_norad_cat_id": 66567,
        "meta_element_set_no": 999,
        "meta_rev_at_epoch": 610,
        "meta_bstar": -0.0013526581,
        "meta_mean_motion_dot": -0.00097458,
        "meta_mean_motion_ddot": 0,
        "tle_line1": "1 66567U 25268L   25357.00001157 -.00097458  00000+0 -13527-2 0  9993",
        "tle_line2": "2 66567  43.0007  60.9996 0001373 271.8844   9.9096 15.56454435  6105"
      },
      "geometry": {
        "type": "Point",
        "coordinates": [
          0.11173315212297862,
          -38.61125899487995
        ]
      }
    }
  ]
}